{
  "type": "FeatureCollection",
  "features": [
    {
      "type": "Feature",
      "properties": {
        "norad_id": 36430,
        "name": "COSMOS 2251 DEB",
        "group": "cosmos-2251-debris",
        "lat": -60.85083576041735,
        "lon": 96.01926653985076,
        "alt_km": 738.8169564184636,
        "timestamp": "2025-12-02T13:52:17.658609+00:00",
        "meta_object_name": "COSMOS 2251 DEB",
        "meta_object_id": "1993-036BAD",
        "meta_epoch": "2025-12-02T02:24:06.345216",
        "meta_mean_motion": 14.27749233,
        "meta_eccentricity": 0.00972219,
        "meta_inclination": 74.0032,
        "meta_ra_of_asc_node": 127.8413,
        "meta_arg_of_pericenter": 280.0414,
        "meta_mean_anomaly": 78.9776,
        "meta_ephemeris_type": 0,
        "meta_classification_type": "U",
        "meta_norad_cat_id": 36430,
        "meta_element_set_no": 999,
        "meta_rev_at_epoch": 64405,
        "meta_bstar": 0.00050130436,
        "meta_mean_motion_dot": 1.275e-05,
        "meta_mean_motion_ddot": 0,
        "tle_line1": "1 36430U 93036BAD 25336.10007344  .00001275  00000+0  50130-3 0  9991",
        "tle_line2": "2 36430  74.0032 127.8413 0097221 280.0414  78.9776 14.27749233644055"
      },
      "geometry": {
        "type": "Point",
        "coordinates": [
          96.01926653985076,
          -60.85083576041735
        ]
      }
    },
    {
      "type": "Feature",
      "properties": {
        "norad_id": 36437,
        "name": "COSMOS 2251 DEB",
        "group": "cosmos-2251-debris",
        "lat": 3.4514055046728815,
        "lon": -127.16169657528101,
        "alt_km": 667.172178800387,
        "timestamp": "2025-12-02T13:52:17.658619+00:00",
        "meta_object_name": "COSMOS 2251 DEB",
        "meta_object_id": "1993-036BAL",
        "meta_epoch": "2025-11-30T21:52:48.229248",
        "meta_mean_motion": 14.70347915,
        "meta_eccentricity": 0.00231055,
        "meta_inclination": 73.9433,
        "meta_ra_of_asc_node": 57.083,
        "meta_arg_of_pericenter": 288.4572,
        "meta_mean_anomaly": 71.4087,
        "meta_ephemeris_type": 0,
        "meta_classification_type": "U",
        "meta_norad_cat_id": 36437,
        "meta_element_set_no": 999,
        "meta_rev_at_epoch": 65877,
        "meta_bstar": 0.0016193375,
        "meta_mean_motion_dot": 9.811e-05,
        "meta_mean_motion_ddot": 0,
        "tle_line1": "1 36437U 93036BAL 25334.91166932  .00009811  00000+0  16193-2 0  9998",
        "tle_line2": "2 36437  73.9433  57.0830 0023105 288.4572  71.4087 14.70347915658775"
      },
      "geometry": {
        "type": "Point",
        "coordinates": [
          -127.16169657528101,
          3.4514055046728815
        ]
      }
    },
    {
      "type": "Feature",
      "properties": {
        "norad_id": 36439,
        "name": "COSMOS 2251 DEB",
        "group": "cosmos-2251-debris",
        "lat": -73.74374107011003,
        "lon": -46.64388825417287,
        "alt_km": 1234.7601111727718,
        "timestamp": "2025-12-02T13:52:17.658630+00:00",
        "meta_object_name": "COSMOS 2251 DEB",
        "meta_object_id": "1993-036BAN",
        "meta_epoch": "2025-11-28T12:20:46.608576",
        "meta_mean_motion": 13.47759109,
        "meta_eccentricity": 0.04273078,
        "meta_inclination": 73.9677,
        "meta_ra_of_asc_node": 59.4166,
        "meta_arg_of_pericenter": 34.2696,
        "meta_mean_anomaly": 328.5204,
        "meta_ephemeris_type": 0,
        "meta_classification_type": "U",
        "meta_norad_cat_id": 36439,
        "meta_element_set_no": 999,
        "meta_rev_at_epoch": 58421,
        "meta_bstar": 0.00064226543,
        "meta_mean_motion_dot": 6.71e-06,
        "meta_mean_motion_ddot": 0,
        "tle_line1": "1 36439U 93036BAN 25332.51442834  .00000671  00000+0  64227-3 0  9999",
        "tle_line2": "2 36439  73.9677  59.4166 0427307  34.2696 328.5204 13.47759109584210"
      },
      "geometry": {
        "type": "Point",
        "coordinates": [
          -46.64388825417287,
          -73.74374107011003
        ]
      }
    },
    {
      "type": "Feature",
      "properties": {
        "norad_id": 36441,
        "name": "COSMOS 2251 DEB",
        "group": "cosmos-2251-debris",
        "lat": 33.76819006787632,
        "lon": 22.066775236251,
        "alt_km": 526.6248425598096,
        "timestamp": "2025-12-02T13:52:17.658640+00:00",
        "meta_object_name": "COSMOS 2251 DEB",
        "meta_object_id": "1993-036BAQ",
        "meta_epoch": "2025-12-01T10:37:17.028480",
        "meta_mean_motion": 15.06528579,
        "meta_eccentricity": 0.01088896,
        "meta_inclination": 73.8359,
        "meta_ra_of_asc_node": 13.2432,
        "meta_arg_of_pericenter": 115.0998,
        "meta_mean_anomaly": 246.1538,
        "meta_ephemeris_type": 0,
        "meta_classification_type": "U",
        "meta_norad_cat_id": 36441,
        "meta_element_set_no": 999,
        "meta_rev_at_epoch": 86795,
        "meta_bstar": 0.00050507629,
        "meta_mean_motion_dot": 8.513e-05,
        "meta_mean_motion_ddot": 0,
        "tle_line1": "1 36441U 93036BAQ 25335.44255820  .00008513  00000+0  50508-3 0  9994",
        "tle_line2": "2 36441  73.8359  13.2432 0108889 115.0998 246.1538 15.06528579867959"
      },
      "geometry": {
        "type": "Point",
        "coordinates": [
          22.066775236251,
          33.76819006787632
        ]
      }
    },
    {
      "type": "Feature",
      "properties": {
        "norad_id": 36442,
        "name": "COSMOS 2251 DEB",
        "group": "cosmos-2251-debris",
        "lat": 33.50588207495157,
        "lon": -130.0727328495001,
        "alt_km": 493.01895404673087,
        "timestamp": "2025-12-02T13:52:17.658651+00:00",
        "meta_object_name": "COSMOS 2251 DEB",
        "meta_object_id": "1993-036BAR",
        "meta_epoch": "2025-11-30T23:26:58.990560",
        "meta_mean_motion": 15.24721511,
        "meta_eccentricity": 0.00074124,
        "meta_inclination": 73.9503,
        "meta_ra_of_asc_node": 64.3117,
        "meta_arg_of_pericenter": 319.957,
        "meta_mean_anomaly": 40.1082,
        "meta_ephemeris_type": 0,
        "meta_classification_type": "U",
        "meta_norad_cat_id": 36442,
        "meta_element_set_no": 999,
        "meta_rev_at_epoch": 85736,
        "meta_bstar": 0.0052461948,
        "meta_mean_motion_dot": 0.00132297,
        "meta_mean_motion_ddot": 0,
        "tle_line1": "1 36442U 93036BAR 25334.97707165  .00132297  00000+0  52462-2 0  9993",
        "tle_line2": "2 36442  73.9503  64.3117 0007412 319.9570  40.1082 15.24721511857361"
      },
      "geometry": {
        "type": "Point",
        "coordinates": [
          -130.0727328495001,
          33.50588207495157
        ]
      }
    },
    {
      "type": "Feature",
      "properties": {
        "norad_id": 36451,
        "name": "COSMOS 2251 DEB",
        "group": "cosmos-2251-debris",
        "lat": 33.16355876637219,
        "lon": 4.312730445285436,
        "alt_km": 936.3738070462423,
        "timestamp": "2025-12-02T13:52:17.658661+00:00",
        "meta_object_name": "COSMOS 2251 DEB",
        "meta_object_id": "1993-036BBA",
        "meta_epoch": "2025-11-23T11:22:47.268480",
        "meta_mean_motion": 14.186418,
        "meta_eccentricity": 0.01854084,
        "meta_inclination": 73.9551,
        "meta_ra_of_asc_node": 9.8042,
        "meta_arg_of_pericenter": 198.3245,
        "meta_mean_anomaly": 161.1162,
        "meta_ephemeris_type": 0,
        "meta_classification_type": "U",
        "meta_norad_cat_id": 36451,
        "meta_element_set_no": 999,
        "meta_rev_at_epoch": 83952,
        "meta_bstar": 0.00086199657,
        "meta_mean_motion_dot": 2.093e-05,
        "meta_mean_motion_ddot": 0,
        "tle_line1": "1 36451U 93036BBA 25327.47415820  .00002093  00000+0  86200-3 0  9992",
        "tle_line2": "2 36451  73.9551   9.8042 0185408 198.3245 161.1162 14.18641800839520"
      },
      "geometry": {
        "type": "Point",
        "coordinates": [
          4.312730445285436,
          33.16355876637219
        ]
      }
    },
    {
      "type": "Feature",
      "properties": {
        "norad_id": 36453,
        "name": "COSMOS 2251 DEB",
        "group": "cosmos-2251-debris",
        "lat": 43.11525019345345,
        "lon": -23.98110025991759,
        "alt_km": 685.8421792141526,
        "timestamp": "2025-12-02T13:52:17.658671+00:00",
        "meta_object_name": "COSMOS 2251 DEB",
        "meta_object_id": "1993-036BBC",
        "meta_epoch": "2025-11-25T14:26:35.818080",
        "meta_mean_motion": 14.52434579,
        "meta_eccentricity": 0.00700835,
        "meta_inclination": 73.9233,
        "meta_ra_of_asc_node": 184.9219,
        "meta_arg_of_pericenter": 92.9023,
        "meta_mean_anomaly": 298.1691,
        "meta_ephemeris_type": 0,
        "meta_classification_type": "U",
        "meta_norad_cat_id": 36453,
        "meta_element_set_no": 999,
        "meta_rev_at_epoch": 84219,
        "meta_bstar": 0.0011079124,
        "meta_mean_motion_dot": 4.638e-05,
        "meta_mean_motion_ddot": 0,
        "tle_line1": "1 36453U 93036BBC 25329.60180345  .00004638  00000+0  11079-2 0  9990",
        "tle_line2": "2 36453  73.9233 184.9219 0070083  92.9023 298.1691 14.52434579842191"
      },
      "geometry": {
        "type": "Point",
        "coordinates": [
          -23.98110025991759,
          43.11525019345345
        ]
      }
    }
  ]
}